[{"OBJECT_NAME":"TIANYAN 23","OBJECT_ID":"2025-051B","EPOCH":"2026-03-09T23:26:47.311872","MEAN_MOTION":15.41906998,"ECCENTRICITY":0.00071474,"INCLINATION":97.4557,"RA_OF_ASC_NODE":153.5654,"ARG_OF_PERICENTER":100.2199,"MEAN_ANOMALY":259.9854,"EPHEMERIS_TYPE":0,"CLASSIFICATION_TYPE":"U","NORAD_CAT_ID":63209,"ELEMENT_SET_NO":999,"REV_AT_EPOCH":5504,"BSTAR":0.00093276918,"MEAN_MOTION_DOT":0.00039734,"MEAN_MOTION_DDOT":0},{"OBJECT_NAME":"STARLINK-36195","OBJECT_ID":"2025-299Y","EPOCH":"2026-03-09T07:55:30.364320","MEAN_MOTION":15.40727297,"ECCENTRICITY":0.00011668,"INCLINATION":43.0011,"RA_OF_ASC_NODE":170.8185,"ARG_OF_PERICENTER":263.7182,"MEAN_ANOMALY":96.3541,"EPHEMERIS_TYPE":0,"CLASSIFICATION_TYPE":"U","NORAD_CAT_ID":67124,"ELEMENT_SET_NO":999,"REV_AT_EPOCH":1306,"BSTAR":0.0012615233,"MEAN_MOTION_DOT":0.00052806,"MEAN_MOTION_DDOT":0}]
